0 COSMOS 2251 DEB
1 35473U 93036ALT 13282.17312028  .00042082  00000-0  70130-2 0  9138
2 35473 074.0416 046.7349 0056335 177.9195 250.7702 14.68723221237135
0 COSMOS 2251 DEB
1 35473U 93036ALT 13283.12496948  .00033199  00000-0  55336-2 0  9149
2 35473 074.0404 044.8938 0056173 176.2115 243.3172 14.68786299237266
0 COSMOS 2251 DEB
1 35473U 93036ALT 13283.67000235  .00036267  00000-0  60393-2 0  9158
2 35473 074.0409 043.8386 0056065 174.9505 245.3554 14.68808376237341
0 COSMOS 2251 DEB
1 35473U 93036ALT 13285.29863156  .00026734  00000-0  44513-2 0  9162
2 35473 074.0411 040.6874 0055774 171.5153 217.2195 14.68899071237586
0 COSMOS 2251 DEB
1 35473U 93036ALT 13287.07648654  .00025257  00000-0  41996-2 0  9176
2 35473 074.0416 037.2468 0055387 167.7663 258.7179 14.68984741237856
0 COSMOS 2251 DEB
1 35473U 93036ALT 13288.09581310  .00045839  00000-0  75869-2 0  9189
2 35473 074.0420 035.2746 0054894 165.9403 248.9751 14.69050390237999
0 COSMOS 2251 DEB
1 35473U 93036ALT 13289.12015537  .00038324  00000-0  63408-2 0  9195
2 35473 074.0423 033.2923 0054613 163.8062 266.3390 14.69129395238158
0 COSMOS 2251 DEB
1 35473U 93036ALT 13289.74374859  .00038959  00000-0  64416-2 0  9204
2 35473 074.0423 032.0844 0054607 162.2796 324.6432 14.69153875238242
0 COSMOS 2251 DEB
1 35473U 93036ALT 13291.09329928  .00031436  00000-0  51946-2 0  9210
2 35473 074.0424 029.4717 0054351 159.3725 262.5373 14.69245309238436
0 COSMOS 2251 DEB
1 35473U 93036ALT 13292.74686461  .00029820  00000-0  49205-2 0  9221
2 35473 074.0421 026.2704 0053921 155.8174 008.9244 14.69336251238688
0 COSMOS 2251 DEB
1 35473U 93036ALT 13294.72059553  .00035070  00000-0  57709-2 0  9230
2 35473 074.0415 022.4484 0053421 151.5969 009.4816 14.69433278238974
0 COSMOS 2251 DEB
1 35473U 93036ALT 13295.99397756  .00032220  00000-0  52973-2 0  9243
2 35473 074.0407 019.9822 0053066 148.8100 265.8087 14.69506015239152
